[{"OBJECT_NAME":"ONEWEB-0615","OBJECT_ID":"2022-166AL","EPOCH":"2025-10-08T02:34:12.253728","MEAN_MOTION":13.21844286,"ECCENTRICITY":0.00018215,"INCLINATION":87.9164,"RA_OF_ASC_NODE":294.2906,"ARG_OF_PERICENTER":91.0041,"MEAN_ANOMALY":269.1302,"EPHEMERIS_TYPE":0,"CLASSIFICATION_TYPE":"U","NORAD_CAT_ID":54676,"ELEMENT_SET_NO":999,"REV_AT_EPOCH":13814,"BSTAR":0.0050710918,"MEAN_MOTION_DOT":2.108e-5,"MEAN_MOTION_DDOT":0},{"OBJECT_NAME":"ONEWEB-0655","OBJECT_ID":"2022-166AM","EPOCH":"2025-10-08T07:22:47.822880","MEAN_MOTION":13.21741655,"ECCENTRICITY":0.00016693,"INCLINATION":87.916,"RA_OF_ASC_NODE":294.2552,"ARG_OF_PERICENTER":88.2546,"MEAN_ANOMALY":271.8779,"EPHEMERIS_TYPE":0,"CLASSIFICATION_TYPE":"U","NORAD_CAT_ID":54677,"ELEMENT_SET_NO":999,"REV_AT_EPOCH":13816,"BSTAR":-0.023271356,"MEAN_MOTION_DOT":-9.576e-5,"MEAN_MOTION_DDOT":0},{"OBJECT_NAME":"ONEWEB-0659","OBJECT_ID":"2022-166AN","EPOCH":"2025-10-08T00:31:39.061632","MEAN_MOTION":13.21808654,"ECCENTRICITY":0.00023825,"INCLINATION":87.918,"RA_OF_ASC_NODE":294.3151,"ARG_OF_PERICENTER":100.7588,"MEAN_ANOMALY":259.3814,"EPHEMERIS_TYPE":0,"CLASSIFICATION_TYPE":"U","NORAD_CAT_ID":54678,"ELEMENT_SET_NO":999,"REV_AT_EPOCH":13821,"BSTAR":-0.0064137254,"MEAN_MOTION_DOT":-2.634e-5,"MEAN_MOTION_DDOT":0},{"OBJECT_NAME":"ONEWEB-0685","OBJECT_ID":"2022-166AP","EPOCH":"2025-10-08T02:22:48.568800","MEAN_MOTION":13.21828605,"ECCENTRICITY":0.00017616,"INCLINATION":87.9166,"RA_OF_ASC_NODE":294.2937,"ARG_OF_PERICENTER":83.8967,"MEAN_ANOMALY":276.2368,"EPHEMERIS_TYPE":0,"CLASSIFICATION_TYPE":"U","NORAD_CAT_ID":54679,"ELEMENT_SET_NO":999,"REV_AT_EPOCH":13811,"BSTAR":-0.00016003856,"MEAN_MOTION_DOT":-5.3e-7,"MEAN_MOTION_DDOT":0},{"OBJECT_NAME":"ONEWEB-0712","OBJECT_ID":"2022-166AQ","EPOCH":"2025-10-08T06:46:12.437760","MEAN_MOTION":13.16593715,"ECCENTRICITY":0.00013399,"INCLINATION":87.8979,"RA_OF_ASC_NODE":278.9581,"ARG_OF_PERICENTER":95.0393,"MEAN_ANOMALY":265.0891,"EPHEMERIS_TYPE":0,"CLASSIFICATION_TYPE":"U","NORAD_CAT_ID":54680,"ELEMENT_SET_NO":999,"REV_AT_EPOCH":13891,"BSTAR":0.00029488467,"MEAN_MOTION_DOT":1.26e-6,"MEAN_MOTION_DDOT":0},{"OBJECT_NAME":"ONEWEB-0714","OBJECT_ID":"2022-166AR","EPOCH":"2025-10-08T00:42:54.121248","MEAN_MOTION":13.21846552,"ECCENTRICITY":0.00016858,"INCLINATION":87.9197,"RA_OF_ASC_NODE":294.3021,"ARG_OF_PERICENTER":95.3537,"MEAN_ANOMALY":264.7789,"EPHEMERIS_TYPE":0,"CLASSIFICATION_TYPE":"U","NORAD_CAT_ID":54681,"ELEMENT_SET_NO":999,"REV_AT_EPOCH":13822,"BSTAR":0.0054564319,"MEAN_MOTION_DOT":2.268e-5,"MEAN_MOTION_DDOT":0},{"OBJECT_NAME":"ONEWEB-0532","OBJECT_ID":"2023-004A","EPOCH":"2025-10-07T09:26:57.186816","MEAN_MOTION":13.17649489,"ECCENTRICITY":0.00020062,"INCLINATION":87.9096,"RA_OF_ASC_NODE":56.1287,"ARG_OF_PERICENTER":87.6666,"MEAN_ANOMALY":272.4695,"EPHEMERIS_TYPE":0,"CLASSIFICATION_TYPE":"U","NORAD_CAT_ID":55140,"ELEMENT_SET_NO":999,"REV_AT_EPOCH":13429,"BSTAR":0.00030774128,"MEAN_MOTION_DOT":1.32e-6,"MEAN_MOTION_DDOT":0},{"OBJECT_NAME":"ONEWEB-0533","OBJECT_ID":"2023-004B","EPOCH":"2025-10-08T06:21:26.606592","MEAN_MOTION":13.12440626,"ECCENTRICITY":0.00015221,"INCLINATION":87.895,"RA_OF_ASC_NODE":40.707,"ARG_OF_PERICENTER":93.434,"MEAN_ANOMALY":266.6963,"EPHEMERIS_TYPE":0,"CLASSIFICATION_TYPE":"U","NORAD_CAT_ID":55141,"ELEMENT_SET_NO":999,"REV_AT_EPOCH":13501,"BSTAR":0.00036542218,"MEAN_MOTION_DOT":1.44e-6,"MEAN_MOTION_DDOT":0},{"OBJECT_NAME":"ONEWEB-0541","OBJECT_ID":"2023-004C","EPOCH":"2025-10-08T04:10:40.000512","MEAN_MOTION":13.11415862,"ECCENTRICITY":0.00017639,"INCLINATION":87.8811,"RA_OF_ASC_NODE":71.2398,"ARG_OF_PERICENTER":93.7546,"MEAN_ANOMALY":266.3783,"EPHEMERIS_TYPE":0,"CLASSIFICATION_TYPE":"U","NORAD_CAT_ID":55142,"ELEMENT_SET_NO":999,"REV_AT_EPOCH":13291,"BSTAR":0.0015804309,"MEAN_MOTION_DOT":5.73e-6,"MEAN_MOTION_DDOT":0},{"OBJECT_NAME":"ONEWEB-0543","OBJECT_ID":"2023-004D","EPOCH":"2025-10-08T06:05:31.458048","MEAN_MOTION":13.18687171,"ECCENTRICITY":0.00015772,"INCLINATION":87.9208,"RA_OF_ASC_NODE":25.5354,"ARG_OF_PERICENTER":106.0077,"MEAN_ANOMALY":254.1229,"EPHEMERIS_TYPE":0,"CLASSIFICATION_TYPE":"U","NORAD_CAT_ID":55143,"ELEMENT_SET_NO":999,"REV_AT_EPOCH":13649,"BSTAR":0.00018096497,"MEAN_MOTION_DOT":8.4e-7,"MEAN_MOTION_DDOT":0},{"OBJECT_NAME":"ONEWEB-0544","OBJECT_ID":"2023-004E","EPOCH":"2025-10-08T05:56:01.558464","MEAN_MOTION":13.1868669,"ECCENTRICITY":0.00017778,"INCLINATION":87.9206,"RA_OF_ASC_NODE":25.5266,"ARG_OF_PERICENTER":107.9646,"MEAN_ANOMALY":252.168,"EPHEMERIS_TYPE":0,"CLASSIFICATION_TYPE":"U","NORAD_CAT_ID":55144,"ELEMENT_SET_NO":999,"REV_AT_EPOCH":13649,"BSTAR":0.00033143685,"MEAN_MOTION_DOT":1.44e-6,"MEAN_MOTION_DDOT":0},{"OBJECT_NAME":"ONEWEB-0560","OBJECT_ID":"2023-004F","EPOCH":"2025-10-08T05:46:31.483488","MEAN_MOTION":13.18687158,"ECCENTRICITY":0.00017988,"INCLINATION":87.922,"RA_OF_ASC_NODE":25.509,"ARG_OF_PERICENTER":109.6866,"MEAN_ANOMALY":250.4461,"EPHEMERIS_TYPE":0,"CLASSIFICATION_TYPE":"U","NORAD_CAT_ID":55145,"ELEMENT_SET_NO":999,"REV_AT_EPOCH":13650,"BSTAR":0.00034500516,"MEAN_MOTION_DOT":1.49e-6,"MEAN_MOTION_DDOT":0},{"OBJECT_NAME":"ONEWEB-0565","OBJECT_ID":"2023-004G","EPOCH":"2025-10-08T07:26:15.950976","MEAN_MOTION":13.18685487,"ECCENTRICITY":0.00023007,"INCLINATION":87.921,"RA_OF_ASC_NODE":25.5473,"ARG_OF_PERICENTER":103.5066,"MEAN_ANOMALY":256.6323,"EPHEMERIS_TYPE":0,"CLASSIFICATION_TYPE":"U","NORAD_CAT_ID":55146,"ELEMENT_SET_NO":999,"REV_AT_EPOCH":13650,"BSTAR":-0.00040984749,"MEAN_MOTION_DOT":-1.49e-6,"MEAN_MOTION_DDOT":0},{"OBJECT_NAME":"ONEWEB-0567","OBJECT_ID":"2023-004H","EPOCH":"2025-10-08T07:16:45.886368","MEAN_MOTION":13.18685982,"ECCENTRICITY":0.0002119,"INCLINATION":87.9218,"RA_OF_ASC_NODE":25.5104,"ARG_OF_PERICENTER":107.7668,"MEAN_ANOMALY":252.3695,"EPHEMERIS_TYPE":0,"CLASSIFICATION_TYPE":"U","NORAD_CAT_ID":55147,"ELEMENT_SET_NO":999,"REV_AT_EPOCH":13650,"BSTAR":-0.00061684502,"MEAN_MOTION_DOT":-2.3e-6,"MEAN_MOTION_DDOT":0},{"OBJECT_NAME":"ONEWEB-0569","OBJECT_ID":"2023-004J","EPOCH":"2025-10-08T05:47:17.273760","MEAN_MOTION":13.13469026,"ECCENTRICITY":0.00023838,"INCLINATION":87.9055,"RA_OF_ASC_NODE":10.2659,"ARG_OF_PERICENTER":124.1931,"MEAN_ANOMALY":235.9424,"EPHEMERIS_TYPE":0,"CLASSIFICATION_TYPE":"U","NORAD_CAT_ID":55148,"ELEMENT_SET_NO":999,"REV_AT_EPOCH":13710,"BSTAR":0.0011578503,"MEAN_MOTION_DOT":4.36e-6,"MEAN_MOTION_DDOT":0},{"OBJECT_NAME":"ONEWEB-0570","OBJECT_ID":"2023-004K","EPOCH":"2025-10-08T07:02:32.085888","MEAN_MOTION":13.18686826,"ECCENTRICITY":0.00022971,"INCLINATION":87.9217,"RA_OF_ASC_NODE":25.5126,"ARG_OF_PERICENTER":93.0465,"MEAN_ANOMALY":267.093,"EPHEMERIS_TYPE":0,"CLASSIFICATION_TYPE":"U","NORAD_CAT_ID":55149,"ELEMENT_SET_NO":999,"REV_AT_EPOCH":13649,"BSTAR":0.00022723401,"MEAN_MOTION_DOT":1.02e-6,"MEAN_MOTION_DDOT":0}]
