ONEWEB-0615             
1 54676U 22166AL  25281.10708627  .00002108  00000+0  50711-2 0  9990
2 54676  87.9164 294.2906 0001821  91.0041 269.1302 13.21844286138143
ONEWEB-0655             
1 54677U 22166AM  25281.30749795 -.00009576  00000+0 -23271-1 0  9992
2 54677  87.9160 294.2552 0001669  88.2546 271.8779 13.21741655138161
ONEWEB-0659             
1 54678U 22166AN  25281.02197988 -.00002634  00000+0 -64137-2 0  9998
2 54678  87.9180 294.3151 0002382 100.7588 259.3814 13.21808654138219
ONEWEB-0685             
1 54679U 22166AP  25281.09917325 -.00000053  00000+0 -16004-3 0  9995
2 54679  87.9166 294.2937 0001761  83.8967 276.2368 13.21828605138116
ONEWEB-0712             
1 54680U 22166AQ  25281.28208840  .00000126  00000+0  29488-3 0  9992
2 54680  87.8979 278.9581 0001339  95.0393 265.0891 13.16593715138912
ONEWEB-0714             
1 54681U 22166AR  25281.02979307  .00002268  00000+0  54564-2 0  9999
2 54681  87.9197 294.3021 0001685  95.3537 264.7789 13.21846552138226
ONEWEB-0532             
1 55140U 23004A   25280.39371744  .00000132  00000+0  30774-3 0  9998
2 55140  87.9096  56.1287 0002006  87.6666 272.4695 13.17649489134298
ONEWEB-0533             
1 55141U 23004B   25281.26489128  .00000144  00000+0  36542-3 0  9994
2 55141  87.8950  40.7070 0001522  93.4340 266.6963 13.12440626135013
ONEWEB-0541             
1 55142U 23004C   25281.17407408  .00000573  00000+0  15804-2 0  9999
2 55142  87.8811  71.2398 0001763  93.7546 266.3783 13.11415862132916
ONEWEB-0543             
1 55143U 23004D   25281.25383632  .00000084  00000+0  18096-3 0  9995
2 55143  87.9208  25.5354 0001577 106.0077 254.1229 13.18687171136490
ONEWEB-0544             
1 55144U 23004E   25281.24724026  .00000144  00000+0  33144-3 0  9999
2 55144  87.9206  25.5266 0001777 107.9646 252.1680 13.18686690136499
ONEWEB-0560             
1 55145U 23004F   25281.24064217  .00000149  00000+0  34501-3 0  9992
2 55145  87.9220  25.5090 0001798 109.6866 250.4461 13.18687158136507
ONEWEB-0565             
1 55146U 23004G   25281.30990684 -.00000149  00000+0 -40985-3 0  9991
2 55146  87.9210  25.5473 0002300 103.5066 256.6323 13.18685487136505
ONEWEB-0567             
1 55147U 23004H   25281.30330887 -.00000230  00000+0 -61685-3 0  9996
2 55147  87.9218  25.5104 0002119 107.7668 252.3695 13.18685982136502
ONEWEB-0569             
1 55148U 23004J   25281.24117215  .00000436  00000+0  11579-2 0  9990
2 55148  87.9055  10.2659 0002383 124.1931 235.9424 13.13469026137105
ONEWEB-0570             
1 55149U 23004K   25281.29342692  .00000102  00000+0  22723-3 0  9999
2 55149  87.9217  25.5126 0002297  93.0465 267.0930 13.18686826136497
